{"type": "FeatureCollection", "features": [ {"type": "Feature", "properties": {"norad_id": 38068, "name": "COSMOS 2251 DEB", "group": "cosmos-2251-debris", "lat": 69.73091552367508, "lon": 81.95973892404021, "alt_km": 756.0528808834779, "timestamp": "2025-12-10T05:46:14.224748+00:00", "meta": {"OBJECT_NAME": "COSMOS 2251 DEB", "OBJECT_ID": "1993-036BSA", "EPOCH": "2025-11-26T00:12:22.263264", "MEAN_MOTION": 14.35960004, "ECCENTRICITY": 0.00240903, "INCLINATION": 74.0219, "RA_OF_ASC_NODE": 338.9788, "ARG_OF_PERICENTER": 72.1007, "MEAN_ANOMALY": 288.2769, "EPHEMERIS_TYPE": 0, "CLASSIFICATION_TYPE": "U", "NORAD_CAT_ID": 38068, "ELEMENT_SET_NO": 999, "REV_AT_EPOCH": 66406, "BSTAR": 0.00028750999, "MEAN_MOTION_DOT": 8.11e-06, "MEAN_MOTION_DDOT": 0}, "tle": {"line1": "1 38068U 93036BSA 25330.00859101  .00000811  00000+0  28751-3 0  9998", "line2": "2 38068  74.0219 338.9788 0024090  72.1007 288.2769 14.35960004664064"}}, "geometry": {"type": "Point", "coordinates": [81.95973892404021, 69.73091552367508]}}, {"type": "Feature", "properties": {"norad_id": 38197, "name": "COSMOS 2251 DEB", "group": "cosmos-2251-debris", "lat": 65.03016419188229, "lon": 143.73391092786417, "alt_km": 699.8943559505924, "timestamp": "2025-12-10T05:46:14.224758+00:00", "meta": {"OBJECT_NAME": "COSMOS 2251 DEB", "OBJECT_ID": "1993-036BSM", "EPOCH": "2025-12-08T19:03:08.420544", "MEAN_MOTION": 14.73659772, "ECCENTRICITY": 0.01272107, "INCLINATION": 73.9375, "RA_OF_ASC_NODE": 4.7948, "ARG_OF_PERICENTER": 243.2589, "MEAN_ANOMALY": 115.552, "EPHEMERIS_TYPE": 0, "CLASSIFICATION_TYPE": "U", "NORAD_CAT_ID": 38197, "ELEMENT_SET_NO": 999, "REV_AT_EPOCH": 85697, "BSTAR": 0.0065046848, "MEAN_MOTION_DOT": 0.00048579, "MEAN_MOTION_DDOT": 0}, "tle": {"line1": "1 38197U 93036BSM 25342.79384746  .00048579  00000+0  65047-2 0  9999", "line2": "2 38197  73.9375   4.7948 0127210 243.2589 115.5520 14.73659772856977"}}, "geometry": {"type": "Point", "coordinates": [143.73391092786417, 65.03016419188229]}}, {"type": "Feature", "properties": {"norad_id": 38199, "name": "COSMOS 2251 DEB", "group": "cosmos-2251-debris", "lat": 17.20145716394192, "lon": -118.81543717561469, "alt_km": 1286.011386008534, "timestamp": "2025-12-10T05:46:14.224768+00:00", "meta": {"OBJECT_NAME": "COSMOS 2251 DEB", "OBJECT_ID": "1993-036BSP", "EPOCH": "2025-12-09T13:08:57.601824", "MEAN_MOTION": 13.64788419, "ECCENTRICITY": 0.0369499, "INCLINATION": 73.956, "RA_OF_ASC_NODE": 67.4327, "ARG_OF_PERICENTER": 354.5631, "MEAN_ANOMALY": 5.1515, "EPHEMERIS_TYPE": 0, "CLASSIFICATION_TYPE": "U", "NORAD_CAT_ID": 38199, "ELEMENT_SET_NO": 999, "REV_AT_EPOCH": 60978, "BSTAR": 0.00073909, "MEAN_MOTION_DOT": 9.26e-06, "MEAN_MOTION_DDOT": 0}, "tle": {"line1": "1 38199U 93036BSP 25343.54788891  .00000926  00000+0  73909-3 0  9995", "line2": "2 38199  73.9560  67.4327 0369499 354.5631   5.1515 13.64788419609786"}}, "geometry": {"type": "Point", "coordinates": [-118.81543717561469, 17.20145716394192]}}, {"type": "Feature", "properties": {"norad_id": 38208, "name": "COSMOS 2251 DEB", "group": "cosmos-2251-debris", "lat": -28.06752939095295, "lon": 75.07511384102486, "alt_km": 624.8795918462238, "timestamp": "2025-12-10T05:46:14.224778+00:00", "meta": {"OBJECT_NAME": "COSMOS 2251 DEB", "OBJECT_ID": "1993-036BSY", "EPOCH": "2025-12-09T13:47:05.669952", "MEAN_MOTION": 14.8367688, "ECCENTRICITY": 0.0002644, "INCLINATION": 74.0057, "RA_OF_ASC_NODE": 85.1942, "ARG_OF_PERICENTER": 169.4562, "MEAN_ANOMALY": 205.1363, "EPHEMERIS_TYPE": 0, "CLASSIFICATION_TYPE": "U", "NORAD_CAT_ID": 38208, "ELEMENT_SET_NO": 999, "REV_AT_EPOCH": 71112, "BSTAR": 0.003526, "MEAN_MOTION_DOT": 0.00029227, "MEAN_MOTION_DDOT": 0}, "tle": {"line1": "1 38208U 93036BSY 25343.57437118  .00029227  00000+0  35260-2 0  9994", "line2": "2 38208  74.0057  85.1942 0002644 169.4562 205.1363 14.83676880711127"}}, "geometry": {"type": "Point", "coordinates": [75.07511384102486, -28.06752939095295]}}, {"type": "Feature", "properties": {"norad_id": 38212, "name": "COSMOS 2251 DEB", "group": "cosmos-2251-debris", "lat": -22.763370860430026, "lon": 74.61041463327147, "alt_km": 706.352444806209, "timestamp": "2025-12-10T05:46:14.224788+00:00", "meta": {"OBJECT_NAME": "COSMOS 2251 DEB", "OBJECT_ID": "1993-036BTC", "EPOCH": "2025-12-08T13:15:26.464032", "MEAN_MOTION": 14.77639869, "ECCENTRICITY": 0.0092747, "INCLINATION": 74.0522, "RA_OF_ASC_NODE": 84.8103, "ARG_OF_PERICENTER": 153.0073, "MEAN_ANOMALY": 207.5971, "EPHEMERIS_TYPE": 0, "CLASSIFICATION_TYPE": "U", "NORAD_CAT_ID": 38212, "ELEMENT_SET_NO": 999, "REV_AT_EPOCH": 81248, "BSTAR": 0.00080388, "MEAN_MOTION_DOT": 6.149e-05, "MEAN_MOTION_DDOT": 0}, "tle": {"line1": "1 38212U 93036BTC 25342.55238963  .00006149  00000+0  80388-3 0  9993", "line2": "2 38212  74.0522  84.8103 0092747 153.0073 207.5971 14.77639869812484"}}, "geometry": {"type": "Point", "coordinates": [74.61041463327147, -22.763370860430026]}}, {"type": "Feature", "properties": {"norad_id": 38220, "name": "COSMOS 2251 DEB", "group": "cosmos-2251-debris", "lat": -10.461734631936816, "lon": 70.28973802294587, "alt_km": 592.5755859679166, "timestamp": "2025-12-10T05:46:14.224798+00:00", "meta": {"OBJECT_NAME": "COSMOS 2251 DEB", "OBJECT_ID": "1993-036BTL", "EPOCH": "2025-12-09T13:44:00.256416", "MEAN_MOTION": 14.92597011, "ECCENTRICITY": 0.0004294, "INCLINATION": 74.0143, "RA_OF_ASC_NODE": 74.6677, "ARG_OF_PERICENTER": 60.9042, "MEAN_ANOMALY": 299.257, "EPHEMERIS_TYPE": 0, "CLASSIFICATION_TYPE": "U", "NORAD_CAT_ID": 38220, "ELEMENT_SET_NO": 999, "REV_AT_EPOCH": 71323, "BSTAR": 0.0041515, "MEAN_MOTION_DOT": 0.00042967, "MEAN_MOTION_DDOT": 0}, "tle": {"line1": "1 38220U 93036BTL 25343.57222519  .00042967  00000+0  41515-2 0  9991", "line2": "2 38220  74.0143  74.6677 0004294  60.9042 299.2570 14.92597011713232"}}, "geometry": {"type": "Point", "coordinates": [70.28973802294587, -10.461734631936816]}}, {"type": "Feature", "properties": {"norad_id": 38479, "name": "COSMOS 2251 DEB", "group": "cosmos-2251-debris", "lat": -62.97029544327046, "lon": 43.09983910209209, "alt_km": 732.5648090952982, "timestamp": "2025-12-10T05:46:14.224808+00:00", "meta": {"OBJECT_NAME": "COSMOS 2251 DEB", "OBJECT_ID": "1993-036BTP", "EPOCH": "2025-12-09T20:21:08.432928", "MEAN_MOTION": 14.38247202, "ECCENTRICITY": 0.0084212, "INCLINATION": 74.0072, "RA_OF_ASC_NODE": 189.6196, "ARG_OF_PERICENTER": 299.2173, "MEAN_ANOMALY": 78.341, "EPHEMERIS_TYPE": 0, "CLASSIFICATION_TYPE": "U", "NORAD_CAT_ID": 38479, "ELEMENT_SET_NO": 999, "REV_AT_EPOCH": 64646, "BSTAR": 0.0029194, "MEAN_MOTION_DOT": 9.232e-05, "MEAN_MOTION_DDOT": 0}, "tle": {"line1": "1 38479U 93036BTP 25343.84801427  .00009232  00000+0  29194-2 0  9995", "line2": "2 38479  74.0072 189.6196 0084212 299.2173  78.3410 14.38247202646465"}}, "geometry": {"type": "Point", "coordinates": [43.09983910209209, -62.97029544327046]}}, {"type": "Feature", "properties": {"norad_id": 38481, "name": "COSMOS 2251 DEB", "group": "cosmos-2251-debris", "lat": -1.3214330407458383, "lon": -167.73967114893958, "alt_km": 1025.2635126026325, "timestamp": "2025-12-10T05:46:14.224818+00:00", "meta": {"OBJECT_NAME": "COSMOS 2251 DEB", "OBJECT_ID": "1993-036BTR", "EPOCH": "2025-12-07T20:04:54.972768", "MEAN_MOTION": 13.94787579, "ECCENTRICITY": 0.0233704, "INCLINATION": 73.9329, "RA_OF_ASC_NODE": 16.0313, "ARG_OF_PERICENTER": 317.436, "MEAN_ANOMALY": 40.8857, "EPHEMERIS_TYPE": 0, "CLASSIFICATION_TYPE": "U", "NORAD_CAT_ID": 38481, "ELEMENT_SET_NO": 999, "REV_AT_EPOCH": 58992, "BSTAR": 0.0025212109, "MEAN_MOTION_DOT": 4.22e-05, "MEAN_MOTION_DDOT": 0}, "tle": {"line1": "1 38481U 93036BTR 25341.83674737  .00004220  00000+0  25212-2 0  9996", "line2": "2 38481  73.9329  16.0313 0233704 317.4360  40.8857 13.94787579589921"}}, "geometry": {"type": "Point", "coordinates": [-167.73967114893958, -1.3214330407458383]}}, {"type": "Feature", "properties": {"norad_id": 38483, "name": "COSMOS 2251 DEB", "group": "cosmos-2251-debris", "lat": -19.495996370449717, "lon": 10.490745093126588, "alt_km": 863.4150856047008, "timestamp": "2025-12-10T05:46:14.224828+00:00", "meta": {"OBJECT_NAME": "COSMOS 2251 DEB", "OBJECT_ID": "1993-036BTT", "EPOCH": "2025-12-09T19:47:02.543136", "MEAN_MOTION": 14.28773008, "ECCENTRICITY": 0.0110495, "INCLINATION": 74.2621, "RA_OF_ASC_NODE": 16.9647, "ARG_OF_PERICENTER": 123.4818, "MEAN_ANOMALY": 237.6953, "EPHEMERIS_TYPE": 0, "CLASSIFICATION_TYPE": "U", "NORAD_CAT_ID": 38483, "ELEMENT_SET_NO": 999, "REV_AT_EPOCH": 63436, "BSTAR": 0.00132, "MEAN_MOTION_DOT": 3.528e-05, "MEAN_MOTION_DDOT": 0}, "tle": {"line1": "1 38483U 93036BTT 25343.82433499  .00003528  00000+0  13200-2 0  9991", "line2": "2 38483  74.2621  16.9647 0110495 123.4818 237.6953 14.28773008634367"}}, "geometry": {"type": "Point", "coordinates": [10.490745093126588, -19.495996370449717]}}, {"type": "Feature", "properties": {"norad_id": 38486, "name": "COSMOS 2251 DEB", "group": "cosmos-2251-debris", "lat": -70.20856020862567, "lon": 156.57832125247046, "alt_km": 651.6107098107714, "timestamp": "2025-12-10T05:46:14.224838+00:00", "meta": {"OBJECT_NAME": "COSMOS 2251 DEB", "OBJECT_ID": "1993-036BTW", "EPOCH": "2025-12-09T09:44:58.569216", "MEAN_MOTION": 14.73093158, "ECCENTRICITY": 0.0030131, "INCLINATION": 73.9406, "RA_OF_ASC_NODE": 211.3897, "ARG_OF_PERICENTER": 356.1257, "MEAN_ANOMALY": 183.7867, "EPHEMERIS_TYPE": 0, "CLASSIFICATION_TYPE": "U", "NORAD_CAT_ID": 38486, "ELEMENT_SET_NO": 999, "REV_AT_EPOCH": 75385, "BSTAR": 0.0034479645, "MEAN_MOTION_DOT": 0.00022398, "MEAN_MOTION_DDOT": 0}, "tle": {"line1": "1 38486U 93036BTW 25343.40623344  .00022398  00000+0  34480-2 0  9997", "line2": "2 38486  73.9406 211.3897 0030131 356.1257 183.7867 14.73093158753857"}}, "geometry": {"type": "Point", "coordinates": [156.57832125247046, -70.20856020862567]}}]}